QIANFAN-65              
1 62795U 25016L   25286.96046295  .00000058  00000+0  71375-4 0  9996
2 62795  88.9723 109.2449 0014672 149.9325 210.2672 13.50971810 39175
QIANFAN-66              
1 62796U 25016M   25284.76742828  .00000126  00000+0  17597-3 0  9999
2 62796  88.9747 109.4302 0015725 152.1511 208.0485 13.50966984 38920
QIANFAN-67              
1 62797U 25016N   25286.91929288  .00000077  00000+0  99891-4 0  9999
2 62797  88.9737 109.2390 0015701 152.8527 207.3449 13.50968621 39184
QIANFAN-68              
1 62798U 25016P   25286.98515800  .00000082  00000+0  10752-3 0  9992
2 62798  88.9736 109.2752 0015798 151.0099 209.1933 13.50970962 39175
QIANFAN-69              
1 62799U 25016Q   25287.00164777  .00000058  00000+0  71000-4 0  9997
2 62799  88.9715 109.1557 0016527 152.2266 207.9771 13.50968449 39213
QIANFAN-70              
1 62800U 25016R   25286.57358218 -.00000167  00000+0 -27734-3 0  9993
2 62800  88.9740 109.3259 0016256 144.3136 215.9105 13.50972411 39115
QIANFAN-71              
1 62801U 25016S   25286.93988986  .00000074  00000+0  96503-4 0  9991
2 62801  88.9730 109.2712 0016337 155.7384 204.4540 13.50972145 39164
QIANFAN-72              
1 62802U 25016T   25274.29087208  .00000084  00000+0  11481-3 0  9997
2 62802  88.9730 110.6012 0018440 200.3911 159.6505 13.49486897 37447
